{"type": "FeatureCollection", "features": [ {"type": "Feature", "properties": {"norad_id": 58654, "name": "BEIDOU-3 M28 (C50)", "group": "beidou", "lat": -53.8015336230931, "lon": -0.6901505026168417, "alt_km": 21527.59752477207, "timestamp": "2025-12-12T07:43:20.778891+00:00", "meta": {"OBJECT_NAME": "BEIDOU-3 M28 (C50)", "OBJECT_ID": "2023-207A", "EPOCH": "2025-12-11T21:37:33.991968", "MEAN_MOTION": 1.86229651, "ECCENTRICITY": 0.00023562, "INCLINATION": 55.5838, "RA_OF_ASC_NODE": 68.6297, "ARG_OF_PERICENTER": 269.3243, "MEAN_ANOMALY": 90.6691, "EPHEMERIS_TYPE": 0, "CLASSIFICATION_TYPE": "U", "NORAD_CAT_ID": 58654, "ELEMENT_SET_NO": 999, "REV_AT_EPOCH": 1335, "BSTAR": 0, "MEAN_MOTION_DOT": -6.9e-07, "MEAN_MOTION_DDOT": 0}, "tle": {"line1": "1 58654U 23207A   25345.90108787 -.00000069  00000+0  00000+0 0  9995", "line2": "2 58654  55.5838  68.6297 0002356 269.3243  90.6691  1.86229651 13350"}}, "geometry": {"type": "Point", "coordinates": [-0.6901505026168417, -53.8015336230931]}}, {"type": "Feature", "properties": {"norad_id": 58655, "name": "BEIDOU-3 M26 (C48)", "group": "beidou", "lat": 44.2225958092638, "lon": 110.38918914552758, "alt_km": 21532.776359899493, "timestamp": "2025-12-12T07:43:20.778902+00:00", "meta": {"OBJECT_NAME": "BEIDOU-3 M26 (C48)", "OBJECT_ID": "2023-207B", "EPOCH": "2025-12-11T03:52:58.066752", "MEAN_MOTION": 1.86231203, "ECCENTRICITY": 0.00037801, "INCLINATION": 55.5852, "RA_OF_ASC_NODE": 68.6411, "ARG_OF_PERICENTER": 255.3563, "MEAN_ANOMALY": 104.6233, "EPHEMERIS_TYPE": 0, "CLASSIFICATION_TYPE": "U", "NORAD_CAT_ID": 58655, "ELEMENT_SET_NO": 999, "REV_AT_EPOCH": 1332, "BSTAR": 0, "MEAN_MOTION_DOT": -6.3e-07, "MEAN_MOTION_DDOT": 0}, "tle": {"line1": "1 58655U 23207B   25345.16178318 -.00000063  00000+0  00000+0 0  9995", "line2": "2 58655  55.5852  68.6411 0003780 255.3563 104.6233  1.86231203 13328"}}, "geometry": {"type": "Point", "coordinates": [110.38918914552758, 44.2225958092638]}}, {"type": "Feature", "properties": {"norad_id": 61186, "name": "BEIDOU-3 M25 (C47)", "group": "beidou", "lat": 4.401993147372914, "lon": 125.58517337491706, "alt_km": 21535.810799498613, "timestamp": "2025-12-12T07:43:20.778913+00:00", "meta": {"OBJECT_NAME": "BEIDOU-3 M25 (C47)", "OBJECT_ID": "2024-168B", "EPOCH": "2025-12-09T12:38:32.089056", "MEAN_MOTION": 1.86229941, "ECCENTRICITY": 0.0005432, "INCLINATION": 54.6447, "RA_OF_ASC_NODE": 308.8306, "ARG_OF_PERICENTER": 296.174, "MEAN_ANOMALY": 164.5169, "EPHEMERIS_TYPE": 0, "CLASSIFICATION_TYPE": "U", "NORAD_CAT_ID": 61186, "ELEMENT_SET_NO": 999, "REV_AT_EPOCH": 825, "BSTAR": 0, "MEAN_MOTION_DOT": -7.8e-07, "MEAN_MOTION_DDOT": 0}, "tle": {"line1": "1 61186U 24168B   25343.52676029 -.00000078  00000+0  00000+0 0  9991", "line2": "2 61186  54.6447 308.8306 0005432 296.1740 164.5169  1.86229941  8254"}}, "geometry": {"type": "Point", "coordinates": [125.58517337491706, 4.401993147372914]}}, {"type": "Feature", "properties": {"norad_id": 61187, "name": "BEIDOU-3 M27 (C49)", "group": "beidou", "lat": -38.96705243640826, "lon": -86.33074377042637, "alt_km": 21526.870013400054, "timestamp": "2025-12-12T07:43:20.778924+00:00", "meta": {"OBJECT_NAME": "BEIDOU-3 M27 (C49)", "OBJECT_ID": "2024-168C", "EPOCH": "2025-12-10T08:23:50.553888", "MEAN_MOTION": 1.86230151, "ECCENTRICITY": 0.00023508, "INCLINATION": 54.6394, "RA_OF_ASC_NODE": 308.7857, "ARG_OF_PERICENTER": 335.0567, "MEAN_ANOMALY": 92.4403, "EPHEMERIS_TYPE": 0, "CLASSIFICATION_TYPE": "U", "NORAD_CAT_ID": 61187, "ELEMENT_SET_NO": 999, "REV_AT_EPOCH": 574, "BSTAR": 0, "MEAN_MOTION_DOT": -8.2e-07, "MEAN_MOTION_DDOT": 0}, "tle": {"line1": "1 61187U 24168C   25344.34989067 -.00000082  00000+0  00000+0 0  9997", "line2": "2 61187  54.6394 308.7857 0002350 335.0567  92.4403  1.86230151  5748"}}, "geometry": {"type": "Point", "coordinates": [-86.33074377042637, -38.96705243640826]}}]}